STARLINK-37017          
1 68108U 26044H   26080.91667824 -.00123240  00000+0 -83493-3 0  9991
2 68108  97.2837  41.6704 0001442  81.9684 342.2004 15.75256059  3317
STARLINK-36833          
1 68109U 26044J   26080.91667824 -.00013096  00000+0 -87152-4 0  9996
2 68109  97.2835  41.6721 0001840 111.4032 320.7903 15.75165048  3364
STARLINK-36830          
1 68110U 26044K   26080.91667824 -.00052712  00000+0 -35482-3 0  9994
2 68110  97.2836  41.6710 0001712 117.7411 310.4441 15.75181827  3369
STARLINK-36791          
1 68111U 26044L   26080.91667824 -.00990952  00000+0 -72181-2 0  9998
2 68111  97.2837  41.6765 0001290  92.7532 347.0165 15.75936814  3316
STARLINK-36893          
1 68112U 26044M   26080.91667824 -.01692306  00000+0 -12083-1 0  9996
2 68112  97.2837  41.6784 0001453  88.4287 356.9318 15.76522409  3364
STARLINK-36937          
1 68113U 26044N   26080.91667824 -.00735006  00000+0 -52464-2 0  9999
2 68113  97.2838  41.6810 0001256  88.7027   3.2197 15.75702812  3311
STARLINK-36229          
1 68114U 26044P   26080.91667824 -.01469078  00000+0 -10584-1 0  9990
2 68114  97.2836  41.6791 0001286  91.6926 357.7481 15.76382121  3368
STARLINK-36392          
1 68115U 26044Q   26080.91667824 -.01435987  00000+0 -10366-1 0  9991
2 68115  97.2836  41.6839 0001841  79.3200  18.2477 15.76264585  3364
STARLINK-36805          
1 68116U 26044R   26080.91667824 -.00604945  00000+0 -42774-2 0  9992
2 68116  97.2835  41.6835 0001936  88.5598  11.4440 15.75567504  3368
STARLINK-36844          
1 68117U 26044S   26080.91667824 -.01721040  00000+0 -12238-1 0  9991
2 68117  97.2839  41.6873 0001896  85.7363  21.4581 15.76657548  3310
STARLINK-36789          
1 68118U 26044T   26080.91667824 -.01040415  00000+0 -74730-2 0  9998
2 68118  97.2839  41.6880 0001697  94.8487  14.9080 15.75958235  3313
STARLINK-36850          
1 68119U 26044U   26080.91667824 -.00336065  00000+0 -23239-2 0  9995
2 68119  97.2837  41.6885 0001094 113.2450 358.8550 15.75368949  3313
STARLINK-36868          
1 68120U 26044V   26080.91667824 -.01593320  00000+0 -11573-1 0  9994
2 68120  97.2839  41.6924 0001607  96.0436  23.3674 15.76452289  3316
STARLINK-36855          
1 68121U 26044W   26080.91667824 -.01422102  00000+0 -10229-1 0  9991
2 68121  97.2839  41.6938 0001492  88.5679  34.9218 15.76322654  3313
STARLINK-36366          
1 68122U 26044X   26080.91667824 -.00682013  00000+0 -48476-2 0  9996
2 68122  97.2836  41.6946 0001298  67.0336  58.9131 15.75657747  3364
STARLINK-36922          
1 68123U 26044Y   26080.91667824 -.01886939  00000+0 -13288-1 0  9993
2 68123  97.2841  41.7009 0001895  83.4797  55.0487 15.77166086  3363
