[{"OBJECT_NAME":"STARLINK-37017","OBJECT_ID":"2026-044H","EPOCH":"2026-03-21T22:00:00.999936","MEAN_MOTION":15.75256059,"ECCENTRICITY":0.00014429,"INCLINATION":97.2837,"RA_OF_ASC_NODE":41.6704,"ARG_OF_PERICENTER":81.9684,"MEAN_ANOMALY":342.2004,"EPHEMERIS_TYPE":0,"CLASSIFICATION_TYPE":"U","NORAD_CAT_ID":68108,"ELEMENT_SET_NO":999,"REV_AT_EPOCH":331,"BSTAR":-0.00083492902,"MEAN_MOTION_DOT":-0.0012324,"MEAN_MOTION_DDOT":0},{"OBJECT_NAME":"STARLINK-36833","OBJECT_ID":"2026-044J","EPOCH":"2026-03-21T22:00:00.999936","MEAN_MOTION":15.75165048,"ECCENTRICITY":0.00018409,"INCLINATION":97.2835,"RA_OF_ASC_NODE":41.6721,"ARG_OF_PERICENTER":111.4032,"MEAN_ANOMALY":320.7903,"EPHEMERIS_TYPE":0,"CLASSIFICATION_TYPE":"U","NORAD_CAT_ID":68109,"ELEMENT_SET_NO":999,"REV_AT_EPOCH":336,"BSTAR":-8.7152041e-5,"MEAN_MOTION_DOT":-0.00013096,"MEAN_MOTION_DDOT":0},{"OBJECT_NAME":"STARLINK-36830","OBJECT_ID":"2026-044K","EPOCH":"2026-03-21T22:00:00.999936","MEAN_MOTION":15.75181827,"ECCENTRICITY":0.00017125,"INCLINATION":97.2836,"RA_OF_ASC_NODE":41.671,"ARG_OF_PERICENTER":117.7411,"MEAN_ANOMALY":310.4441,"EPHEMERIS_TYPE":0,"CLASSIFICATION_TYPE":"U","NORAD_CAT_ID":68110,"ELEMENT_SET_NO":999,"REV_AT_EPOCH":336,"BSTAR":-0.00035482423,"MEAN_MOTION_DOT":-0.00052712,"MEAN_MOTION_DDOT":0},{"OBJECT_NAME":"STARLINK-36791","OBJECT_ID":"2026-044L","EPOCH":"2026-03-21T22:00:00.999936","MEAN_MOTION":15.75936814,"ECCENTRICITY":0.000129,"INCLINATION":97.2837,"RA_OF_ASC_NODE":41.6765,"ARG_OF_PERICENTER":92.7532,"MEAN_ANOMALY":347.0165,"EPHEMERIS_TYPE":0,"CLASSIFICATION_TYPE":"U","NORAD_CAT_ID":68111,"ELEMENT_SET_NO":999,"REV_AT_EPOCH":331,"BSTAR":-0.0072180908,"MEAN_MOTION_DOT":-0.00990952,"MEAN_MOTION_DDOT":0},{"OBJECT_NAME":"STARLINK-36893","OBJECT_ID":"2026-044M","EPOCH":"2026-03-21T22:00:00.999936","MEAN_MOTION":15.76522409,"ECCENTRICITY":0.00014536,"INCLINATION":97.2837,"RA_OF_ASC_NODE":41.6784,"ARG_OF_PERICENTER":88.4287,"MEAN_ANOMALY":356.9318,"EPHEMERIS_TYPE":0,"CLASSIFICATION_TYPE":"U","NORAD_CAT_ID":68112,"ELEMENT_SET_NO":999,"REV_AT_EPOCH":336,"BSTAR":-0.012082713,"MEAN_MOTION_DOT":-0.01692306,"MEAN_MOTION_DDOT":0},{"OBJECT_NAME":"STARLINK-36937","OBJECT_ID":"2026-044N","EPOCH":"2026-03-21T22:00:00.999936","MEAN_MOTION":15.75702812,"ECCENTRICITY":0.00012561,"INCLINATION":97.2838,"RA_OF_ASC_NODE":41.681,"ARG_OF_PERICENTER":88.7027,"MEAN_ANOMALY":3.2197,"EPHEMERIS_TYPE":0,"CLASSIFICATION_TYPE":"U","NORAD_CAT_ID":68113,"ELEMENT_SET_NO":999,"REV_AT_EPOCH":331,"BSTAR":-0.0052464243,"MEAN_MOTION_DOT":-0.00735006,"MEAN_MOTION_DDOT":0},{"OBJECT_NAME":"STARLINK-36229","OBJECT_ID":"2026-044P","EPOCH":"2026-03-21T22:00:00.999936","MEAN_MOTION":15.76382121,"ECCENTRICITY":0.00012867,"INCLINATION":97.2836,"RA_OF_ASC_NODE":41.6791,"ARG_OF_PERICENTER":91.6926,"MEAN_ANOMALY":357.7481,"EPHEMERIS_TYPE":0,"CLASSIFICATION_TYPE":"U","NORAD_CAT_ID":68114,"ELEMENT_SET_NO":999,"REV_AT_EPOCH":336,"BSTAR":-0.010584218,"MEAN_MOTION_DOT":-0.01469078,"MEAN_MOTION_DDOT":0},{"OBJECT_NAME":"STARLINK-36392","OBJECT_ID":"2026-044Q","EPOCH":"2026-03-21T22:00:00.999936","MEAN_MOTION":15.76264585,"ECCENTRICITY":0.00018414,"INCLINATION":97.2836,"RA_OF_ASC_NODE":41.6839,"ARG_OF_PERICENTER":79.32,"MEAN_ANOMALY":18.2477,"EPHEMERIS_TYPE":0,"CLASSIFICATION_TYPE":"U","NORAD_CAT_ID":68115,"ELEMENT_SET_NO":999,"REV_AT_EPOCH":336,"BSTAR":-0.01036599,"MEAN_MOTION_DOT":-0.01435987,"MEAN_MOTION_DDOT":0},{"OBJECT_NAME":"STARLINK-36805","OBJECT_ID":"2026-044R","EPOCH":"2026-03-21T22:00:00.999936","MEAN_MOTION":15.75567504,"ECCENTRICITY":0.00019367,"INCLINATION":97.2835,"RA_OF_ASC_NODE":41.6835,"ARG_OF_PERICENTER":88.5598,"MEAN_ANOMALY":11.444,"EPHEMERIS_TYPE":0,"CLASSIFICATION_TYPE":"U","NORAD_CAT_ID":68116,"ELEMENT_SET_NO":999,"REV_AT_EPOCH":336,"BSTAR":-0.0042774453,"MEAN_MOTION_DOT":-0.00604945,"MEAN_MOTION_DDOT":0},{"OBJECT_NAME":"STARLINK-36844","OBJECT_ID":"2026-044S","EPOCH":"2026-03-21T22:00:00.999936","MEAN_MOTION":15.76657548,"ECCENTRICITY":0.00018969,"INCLINATION":97.2839,"RA_OF_ASC_NODE":41.6873,"ARG_OF_PERICENTER":85.7363,"MEAN_ANOMALY":21.4581,"EPHEMERIS_TYPE":0,"CLASSIFICATION_TYPE":"U","NORAD_CAT_ID":68117,"ELEMENT_SET_NO":999,"REV_AT_EPOCH":331,"BSTAR":-0.01223841,"MEAN_MOTION_DOT":-0.0172104,"MEAN_MOTION_DDOT":0},{"OBJECT_NAME":"STARLINK-36789","OBJECT_ID":"2026-044T","EPOCH":"2026-03-21T22:00:00.999936","MEAN_MOTION":15.75958235,"ECCENTRICITY":0.00016976,"INCLINATION":97.2839,"RA_OF_ASC_NODE":41.688,"ARG_OF_PERICENTER":94.8487,"MEAN_ANOMALY":14.908,"EPHEMERIS_TYPE":0,"CLASSIFICATION_TYPE":"U","NORAD_CAT_ID":68118,"ELEMENT_SET_NO":999,"REV_AT_EPOCH":331,"BSTAR":-0.0074729874,"MEAN_MOTION_DOT":-0.01040415,"MEAN_MOTION_DDOT":0},{"OBJECT_NAME":"STARLINK-36850","OBJECT_ID":"2026-044U","EPOCH":"2026-03-21T22:00:00.999936","MEAN_MOTION":15.75368949,"ECCENTRICITY":0.00010942,"INCLINATION":97.2837,"RA_OF_ASC_NODE":41.6885,"ARG_OF_PERICENTER":113.245,"MEAN_ANOMALY":358.855,"EPHEMERIS_TYPE":0,"CLASSIFICATION_TYPE":"U","NORAD_CAT_ID":68119,"ELEMENT_SET_NO":999,"REV_AT_EPOCH":331,"BSTAR":-0.0023238599,"MEAN_MOTION_DOT":-0.00336065,"MEAN_MOTION_DDOT":0},{"OBJECT_NAME":"STARLINK-36868","OBJECT_ID":"2026-044V","EPOCH":"2026-03-21T22:00:00.999936","MEAN_MOTION":15.76452289,"ECCENTRICITY":0.00016078,"INCLINATION":97.2839,"RA_OF_ASC_NODE":41.6924,"ARG_OF_PERICENTER":96.0436,"MEAN_ANOMALY":23.3674,"EPHEMERIS_TYPE":0,"CLASSIFICATION_TYPE":"U","NORAD_CAT_ID":68120,"ELEMENT_SET_NO":999,"REV_AT_EPOCH":331,"BSTAR":-0.011572649,"MEAN_MOTION_DOT":-0.0159332,"MEAN_MOTION_DDOT":0},{"OBJECT_NAME":"STARLINK-36855","OBJECT_ID":"2026-044W","EPOCH":"2026-03-21T22:00:00.999936","MEAN_MOTION":15.76322654,"ECCENTRICITY":0.00014925,"INCLINATION":97.2839,"RA_OF_ASC_NODE":41.6938,"ARG_OF_PERICENTER":88.5679,"MEAN_ANOMALY":34.9218,"EPHEMERIS_TYPE":0,"CLASSIFICATION_TYPE":"U","NORAD_CAT_ID":68121,"ELEMENT_SET_NO":999,"REV_AT_EPOCH":331,"BSTAR":-0.010228546,"MEAN_MOTION_DOT":-0.01422102,"MEAN_MOTION_DDOT":0},{"OBJECT_NAME":"STARLINK-36366","OBJECT_ID":"2026-044X","EPOCH":"2026-03-21T22:00:00.999936","MEAN_MOTION":15.75657747,"ECCENTRICITY":0.00012982,"INCLINATION":97.2836,"RA_OF_ASC_NODE":41.6946,"ARG_OF_PERICENTER":67.0336,"MEAN_ANOMALY":58.9131,"EPHEMERIS_TYPE":0,"CLASSIFICATION_TYPE":"U","NORAD_CAT_ID":68122,"ELEMENT_SET_NO":999,"REV_AT_EPOCH":336,"BSTAR":-0.0048476068,"MEAN_MOTION_DOT":-0.00682013,"MEAN_MOTION_DDOT":0},{"OBJECT_NAME":"STARLINK-36922","OBJECT_ID":"2026-044Y","EPOCH":"2026-03-21T22:00:00.999936","MEAN_MOTION":15.77166086,"ECCENTRICITY":0.00018958,"INCLINATION":97.2841,"RA_OF_ASC_NODE":41.7009,"ARG_OF_PERICENTER":83.4797,"MEAN_ANOMALY":55.0487,"EPHEMERIS_TYPE":0,"CLASSIFICATION_TYPE":"U","NORAD_CAT_ID":68123,"ELEMENT_SET_NO":999,"REV_AT_EPOCH":336,"BSTAR":-0.013287512,"MEAN_MOTION_DOT":-0.01886939,"MEAN_MOTION_DDOT":0}]
